GOES 19                 
1 60133U 24119A   26063.16850294 -.00000261  00000+0  00000+0 0  9990
2 60133   0.0170 327.1044 0000995  52.9626 127.3116  1.00272004  5919
FENGYUN 3H              
1 65815U 25219A   26063.11744286  .00000117  00000+0  75389-4 0  9998
2 65815  98.6679   5.9812 0001403  65.5552 294.5771 14.19930857 22470
