[{"OBJECT_NAME":"GOES 19","OBJECT_ID":"2024-119A","EPOCH":"2026-03-04T04:02:38.654016","MEAN_MOTION":1.00272004,"ECCENTRICITY":9.95e-5,"INCLINATION":0.017,"RA_OF_ASC_NODE":327.1044,"ARG_OF_PERICENTER":52.9626,"MEAN_ANOMALY":127.3116,"EPHEMERIS_TYPE":0,"CLASSIFICATION_TYPE":"U","NORAD_CAT_ID":60133,"ELEMENT_SET_NO":999,"REV_AT_EPOCH":591,"BSTAR":0,"MEAN_MOTION_DOT":-2.61e-6,"MEAN_MOTION_DDOT":0},{"OBJECT_NAME":"FENGYUN 3H","OBJECT_ID":"2025-219A","EPOCH":"2026-03-04T02:49:07.063104","MEAN_MOTION":14.19930857,"ECCENTRICITY":0.0001403,"INCLINATION":98.6679,"RA_OF_ASC_NODE":5.9812,"ARG_OF_PERICENTER":65.5552,"MEAN_ANOMALY":294.5771,"EPHEMERIS_TYPE":0,"CLASSIFICATION_TYPE":"U","NORAD_CAT_ID":65815,"ELEMENT_SET_NO":999,"REV_AT_EPOCH":2247,"BSTAR":7.5389e-5,"MEAN_MOTION_DOT":1.17e-6,"MEAN_MOTION_DDOT":0}]
